{
  "norad_id": 67501,
  "name": "STARLINK-36433",
  "history": [
    {
      "epoch": "2026-03-28T15:53:14.441280",
      "apogee_km": 484.19066742204814,
      "perigee_km": 481.6887071972551,
      "latitude_deg": 4.459369495946266,
      "longitude_deg": -86.35062079993077,
      "semi_major_axis_km": 6861.076687309652,
      "eccentricity": 0.00018233,
      "inclination_deg": 43.0004,
      "raan_deg": 207.2285,
      "arg_perigee_deg": 267.8486,
      "mean_anomaly_deg": 92.2157,
      "mean_motion_rev_day": 15.27616539
    }
  ]
}