{"fetched_at":"2026-03-29T16:36:15Z","count":15609,"tles":[{"name":"STARLINK-36433","line1":"1 67501U 26012J   26087.66197270  .00030632  00000+0  11168-2 0  9993","line2":"2 67501  43.0004 207.2285 0001823 267.8486  92.2157 15.27616539 10667","category":"Starlink"}]}